$$SOE
2461295.500000000, A.D. 2026-Sep-12 00:00:00.0000, 2.431851980237282E+08, -1.320048181166365E+08, -4.318218276107968E+07,
2461302.500000000, A.D. 2026-Sep-19 00:00:00.0000, 2.475981375321409E+08, -1.178237626670377E+08, -4.284906682364903E+07,
2461309.500000000, A.D. 2026-Sep-26 00:00:00.0000, 2.514488951852392E+08, -1.033753612000245E+08, -4.241866706066126E+07,
2461316.500000000, A.D. 2026-Oct-03 00:00:00.0000, 2.547138561185834E+08, -8.868630077166875E+07, -4.188945173232877E+07,
2461323.500000000, A.D. 2026-Oct-10 00:00:00.0000, 2.573708813528181E+08, -7.378573674491294E+07, -4.126026348271909E+07,
2461330.500000000, A.D. 2026-Oct-17 00:00:00.0000, 2.593996285682929E+08, -5.870521258737764E+07, -4.053035915671270E+07,
2461337.500000000, A.D. 2026-Oct-24 00:00:00.0000, 2.607818745871864E+08, -4.347853132872256E+07, -3.969944660505395E+07,
2461344.500000000, A.D. 2026-Oct-31 00:00:00.0000, 2.615018312344183E+08, -2.814157649472989E+07, -3.876771715613627E+07,
2461351.500000000, A.D. 2026-Nov-07 00:00:00.0000, 2.615464455954479E+08, -1.273208188193959E+07, -3.773587242777636E+07,
2461358.500000000, A.D. 2026-Nov-14 00:00:00.0000, 2.609056750405531E+08, 2.710649328373967E+06, -3.660514412943356E+07,
2461365.500000000, A.D. 2026-Nov-21 00:00:00.0000, 2.595727253717607E+08, 1.814607326791007E+07, -3.537730548252534E+07,
2461372.500000000, A.D. 2026-Nov-28 00:00:00.0000, 2.575442417859204E+08, 3.353277311906874E+07, -3.405467348832374E+07,
2461379.500000000, A.D. 2026-Dec-05 00:00:00.0000, 2.548204480210224E+08, 4.882885735326418E+07, -3.264010179521746E+07,
2461386.500000000, A.D. 2026-Dec-12 00:00:00.0000, 2.514052272291271E+08, 6.399238184879477E+07, -3.113696364695409E+07,
2461393.500000000, A.D. 2026-Dec-19 00:00:00.0000, 2.473061381904131E+08, 7.898178471767852E+07, -2.954912485649324E+07,
2461400.500000000, A.D. 2026-Dec-26 00:00:00.0000, 2.425343646985681E+08, 9.375632089910516E+07, -2.788090739075796E+07,
2461407.500000000, A.D. 2027-Jan-02 00:00:00.0000, 2.371045990281410E+08, 1.082764840009664E+08, -2.613704452711869E+07,
2461414.500000000, A.D. 2027-Jan-09 00:00:00.0000, 2.310348629067849E+08, 1.225044035075506E+08, -2.432262885868023E+07,
2461421.500000000, A.D. 2027-Jan-16 00:00:00.0000, 2.243462718226336E+08, 1.364042065395349E+08, -2.244305469722499E+07,
2461428.500000000, A.D. 2027-Jan-23 00:00:00.0000, 2.170627506396115E+08, 1.499423349545447E+08, -2.050395661715680E+07,
2461435.500000000, A.D. 2027-Jan-30 00:00:00.0000, 2.092107102724131E+08, 1.630878106587357E+08, -1.851114598771371E+07,
2461442.500000000, A.D. 2027-Feb-06 00:00:00.0000, 2.008186964636033E+08, 1.758124447475921E+08, -1.647054732045259E+07,
2461449.500000000, A.D. 2027-Feb-13 00:00:00.0000, 1.919170212388789E+08, 1.880909894148771E+08, -1.438813599961729E+07,
2461456.500000000, A.D. 2027-Feb-20 00:00:00.0000, 1.825373855194222E+08, 1.999012319468590E+08, -1.226987876459201E+07,
2461463.500000000, A.D. 2027-Feb-27 00:00:00.0000, 1.727125044607587E+08, 2.112240298795384E+08, -1.012167861702678E+07,
2461470.500000000, A.D. 2027-Mar-06 00:00:00.0000, 1.624757475926514E+08, 2.220432933192717E+08, -7.949325275078237E+06,
2461477.500000000, A.D. 2027-Mar-13 00:00:00.0000, 1.518607997592818E+08, 2.323459219460361E+08, -5.758451563115656E+06,
2461484.500000000, A.D. 2027-Mar-20 00:00:00.0000, 1.409013477303174E+08, 2.421217023085338E+08, -3.554496113602132E+06,
2461491.500000000, A.D. 2027-Mar-27 00:00:00.0000, 1.296307970401028E+08, 2.513631718391216E+08, -1.342672588899598E+06,
2461498.500000000, A.D. 2027-Apr-03 00:00:00.0000, 1.180820220175567E+08, 2.600654566556231E+08, 8.720546445066780E+05,
2461505.500000000, A.D. 2027-Apr-10 00:00:00.0000, 1.062871503668018E+08, 2.682260900945564E+08, 3.084988668696776E+06,
2461512.500000000, A.D. 2027-Apr-17 00:00:00.0000, 9.427738234994838E+07, 2.758448184298156E+08, 5.291712422301784E+06,
2461519.500000000, A.D. 2027-Apr-24 00:00:00.0000, 8.208284363362259E+07, 2.829233995443138E+08, 7.488095887631863E+06,
2461526.500000000, A.D. 2027-May-01 00:00:00.0000, 6.973247026630469E+07, 2.894653996592332E+08, 9.670298632078081E+06,
2461533.500000000, A.D. 2027-May-08 00:00:00.0000, 5.725392367315749E+07, 2.954759931429827E+08, 1.183476836586456E+07,
2461540.500000000, A.D. 2027-May-15 00:00:00.0000, 4.467353137350365E+07, 3.009617698148698E+08, 1.397823635937163E+07,
2461547.500000000, A.D. 2027-May-22 00:00:00.0000, 3.201624884709197E+07, 3.059305498214750E+08, 1.609771025651897E+07,
2461554.500000000, A.D. 2027-May-29 00:00:00.0000, 1.930564282293743E+07, 3.103912065943975E+08, 1.819046442355521E+07,
2461561.500000000, A.D. 2027-Jun-05 00:00:00.0000, 6.563893869709084E+06, 3.143535023865725E+08, 2.025402852364454E+07,
2461568.500000000, A.D. 2027-Jun-12 00:00:00.0000, -6.188186578770875E+06, 3.178279376240703E+08, 2.228617499462390E+07,
2461575.500000000, A.D. 2027-Jun-19 00:00:00.0000, -1.893112775676404E+07, 3.208256134916121E+08, 2.428490578346276E+07,
2461582.500000000, A.D. 2027-Jun-26 00:00:00.0000, -3.164676179979027E+07, 3.233581074857271E+08, 2.624843863177228E+07,
2461589.500000000, A.D. 2027-Jul-03 00:00:00.0000, -4.431817870323014E+07, 3.254373616566612E+08, 2.817519318640588E+07,
2461596.500000000, A.D. 2027-Jul-10 00:00:00.0000, -5.692967585940833E+07, 3.270755830465832E+08, 3.006377716598375E+07,
2461603.500000000, A.D. 2027-Jul-17 00:00:00.0000, -6.946670376518905E+07, 3.282851556286810E+08, 3.191297276282611E+07,
2461610.500000000, A.D. 2027-Jul-24 00:00:00.0000, -8.191580912660161E+07, 3.290785629215692E+08, 3.372172340430640E+07,
2461617.500000000, A.D. 2027-Jul-31 00:00:00.0000, -9.426457611027025E+07, 3.294683206894960E+08, 3.548912096218209E+07,
2461624.500000000, A.D. 2027-Aug-07 00:00:00.0000, -1.065015669063858E+08, 3.294669200352596E+08, 3.721439360004400E+07,
2461631.500000000, A.D. 2027-Aug-14 00:00:00.0000, -1.186162646860102E+08, 3.290867798004165E+08, 3.889689450309652E+07,
2461638.500000000, A.D. 2027-Aug-21 00:00:00.0000, -1.305990189476198E+08, 3.283402040945621E+08, 4.053609119129615E+07,
2461645.500000000, A.D. 2027-Aug-28 00:00:00.0000, -1.424409903002220E+08, 3.272393453742791E+08, 4.213155521509899E+07,
2461652.500000000, A.D. 2027-Sep-04 00:00:00.0000, -1.541340962231448E+08, 3.257961748453631E+08, 4.368295254872820E+07,
2461659.500000000, A.D. 2027-Sep-11 00:00:00.0000, -1.656709594494864E+08, 3.240224588406460E+08, 4.519003474441749E+07,
2461666.500000000, A.D. 2027-Sep-18 00:00:00.0000, -1.770448590115791E+08, 3.219297398821877E+08, 4.665263076295093E+07,
2461673.500000000, A.D. 2027-Sep-25 00:00:00.0000, -1.882496838264673E+08, 3.195293217642210E+08, 4.807063942818734E+07,
2461680.500000000, A.D. 2027-Oct-02 00:00:00.0000, -1.992798887988299E+08, 3.168322581538614E+08, 4.944402247207779E+07,
2461687.500000000, A.D. 2027-Oct-09 00:00:00.0000, -2.101304534271411E+08, 3.138493442273307E+08, 5.077279813630898E+07,
2461694.500000000, A.D. 2027-Oct-16 00:00:00.0000, -2.207968428231568E+08, 3.105911108587333E+08, 5.205703528736874E+07,
2461701.500000000, A.D. 2027-Oct-23 00:00:00.0000, -2.312749708310765E+08, 3.070678209737784E+08, 5.329684798717968E+07,
2461708.500000000, A.D. 2027-Oct-30 00:00:00.0000, -2.415611647979904E+08, 3.032894683394994E+08, 5.449239050137344E+07,
2461715.500000000, A.D. 2027-Nov-06 00:00:00.0000, -2.516521330720719E+08, 2.992657796192471E+08, 5.564385291157252E+07,
2461722.500000000, A.D. 2027-Nov-13 00:00:00.0000, -2.615449371159700E+08, 2.950062173561884E+08, 5.675145731278822E+07,
2461729.500000000, A.D. 2027-Nov-20 00:00:00.0000, -2.712369652239229E+08, 2.905199814674473E+08, 5.781545412017189E+07,
2461736.500000000, A.D. 2027-Nov-27 00:00:00.0000, -2.807259061153513E+08, 2.858160120060771E+08, 5.883611854941860E+07,
2461743.500000000, A.D. 2027-Dec-04 00:00:00.0000, -2.900097243224889E+08, 2.809029939298607E+08, 5.981374750434560E+07,
2461750.500000000, A.D. 2027-Dec-11 00:00:00.0000, -2.990866378134910E+08, 2.757893627630516E+08, 6.074865681807175E+07,
2461757.500000000, A.D. 2027-Dec-18 00:00:00.0000, -3.079550974672248E+08, 2.704833106799224E+08, 6.164117877077426E+07,
2461764.500000000, A.D. 2027-Dec-25 00:00:00.0000, -3.166137681427874E+08, 2.649927928935921E+08, 6.249165984750786E+07,
2461771.500000000, A.D. 2028-Jan-01 00:00:00.0000, -3.250615112016121E+08, 2.593255342668787E+08, 6.330045871282965E+07,
$$EOE